[{"OBJECT_NAME":"DMSP 5D-3 F18 (USA 210)","OBJECT_ID":"2009-057A","EPOCH":"2026-03-09T22:11:19.578624","MEAN_MOTION":14.14835918,"ECCENTRICITY":0.00111332,"INCLINATION":98.8964,"RA_OF_ASC_NODE":49.953,"ARG_OF_PERICENTER":167.567,"MEAN_ANOMALY":192.578,"EPHEMERIS_TYPE":0,"CLASSIFICATION_TYPE":"U","NORAD_CAT_ID":35951,"ELEMENT_SET_NO":999,"REV_AT_EPOCH":84555,"BSTAR":0.0001892164,"MEAN_MOTION_DOT":3.21e-6,"MEAN_MOTION_DDOT":0},{"OBJECT_NAME":"SL-3 DEB","OBJECT_ID":"1981-043D","EPOCH":"2026-03-09T23:47:39.165792","MEAN_MOTION":14.08643141,"ECCENTRICITY":0.00457567,"INCLINATION":81.2914,"RA_OF_ASC_NODE":275.7909,"ARG_OF_PERICENTER":147.0356,"MEAN_ANOMALY":332.3974,"EPHEMERIS_TYPE":0,"CLASSIFICATION_TYPE":"U","NORAD_CAT_ID":25255,"ELEMENT_SET_NO":999,"REV_AT_EPOCH":50802,"BSTAR":0.00014354701,"MEAN_MOTION_DOT":2.62e-6,"MEAN_MOTION_DDOT":0}]
